{"type": "FeatureCollection", "features": [ {"type": "Feature", "properties": {"norad_id": 54234, "name": "NOAA 21 (JPSS-2)", "group": "weather", "lat": 50.63831567298584, "lon": 124.47615843323574, "alt_km": 822.7412413059328, "timestamp": "2025-12-23T11:34:47.828789+00:00", "meta": {"OBJECT_NAME": "NOAA 21 (JPSS-2)", "OBJECT_ID": "2022-150A", "EPOCH": "2025-12-23T02:31:07.262688", "MEAN_MOTION": 14.19526884, "ECCENTRICITY": 0.0001754, "INCLINATION": 98.7477, "RA_OF_ASC_NODE": 293.2845, "ARG_OF_PERICENTER": 17.0427, "MEAN_ANOMALY": 343.0808, "EPHEMERIS_TYPE": 0, "CLASSIFICATION_TYPE": "U", "NORAD_CAT_ID": 54234, "ELEMENT_SET_NO": 999, "REV_AT_EPOCH": 16156, "BSTAR": 5.9188e-05, "MEAN_MOTION_DOT": 8.1e-07, "MEAN_MOTION_DDOT": 0}, "tle": {"line1": "1 54234U 22150A   25357.10494517  .00000081  00000+0  59188-4 0  9994", "line2": "2 54234  98.7477 293.2845 0001754  17.0427 343.0808 14.19526884161566"}}, "geometry": {"type": "Point", "coordinates": [124.47615843323574, 50.63831567298584]}}, {"type": "Feature", "properties": {"norad_id": 54743, "name": "METEOSAT-12 (MTG-I1)", "group": "weather", "lat": -0.6289955571449141, "lon": -94.35472925424783, "alt_km": 35779.86154696032, "timestamp": "2025-12-23T11:34:47.828806+00:00", "meta": {"OBJECT_NAME": "METEOSAT-12 (MTG-I1)", "OBJECT_ID": "2022-170C", "EPOCH": "2025-12-23T02:51:30.436128", "MEAN_MOTION": 1.00270796, "ECCENTRICITY": 0.000155, "INCLINATION": 0.6972, "RA_OF_ASC_NODE": 25.3133, "ARG_OF_PERICENTER": 240.1988, "MEAN_ANOMALY": 228.9621, "EPHEMERIS_TYPE": 0, "CLASSIFICATION_TYPE": "U", "NORAD_CAT_ID": 54743, "ELEMENT_SET_NO": 999, "REV_AT_EPOCH": 1121, "BSTAR": 0, "MEAN_MOTION_DOT": 1.4e-07, "MEAN_MOTION_DDOT": 0}, "tle": {"line1": "1 54743U 22170C   25357.11910227  .00000014  00000+0  00000+0 0  9993", "line2": "2 54743   0.6972  25.3133 0001550 240.1988 228.9621  1.00270796 11216"}}, "geometry": {"type": "Point", "coordinates": [-94.35472925424783, -0.6289955571449141]}}, {"type": "Feature", "properties": {"norad_id": 55973, "name": "TIANMU-1 03", "group": "weather", "lat": 66.05711571500606, "lon": 143.14986945249174, "alt_km": 433.95323635537716, "timestamp": "2025-12-23T11:34:47.828823+00:00", "meta": {"OBJECT_NAME": "TIANMU-1 03", "OBJECT_ID": "2023-039A", "EPOCH": "2025-12-23T05:03:24.384960", "MEAN_MOTION": 15.41216606, "ECCENTRICITY": 0.0003893, "INCLINATION": 97.5111, "RA_OF_ASC_NODE": 160.1567, "ARG_OF_PERICENTER": 31.3002, "MEAN_ANOMALY": 328.8475, "EPHEMERIS_TYPE": 0, "CLASSIFICATION_TYPE": "U", "NORAD_CAT_ID": 55973, "ELEMENT_SET_NO": 999, "REV_AT_EPOCH": 15367, "BSTAR": 0.00040519, "MEAN_MOTION_DOT": 0.00016759, "MEAN_MOTION_DDOT": 0}, "tle": {"line1": "1 55973U 23039A   25357.21069890  .00016759  00000+0  40519-3 0  9992", "line2": "2 55973  97.5111 160.1567 0003893  31.3002 328.8475 15.41216606153674"}}, "geometry": {"type": "Point", "coordinates": [143.14986945249174, 66.05711571500606]}}, {"type": "Feature", "properties": {"norad_id": 55974, "name": "TIANMU-1 04", "group": "weather", "lat": -14.305421255064953, "lon": -22.303469088307665, "alt_km": 449.282732088398, "timestamp": "2025-12-23T11:34:47.828838+00:00", "meta": {"OBJECT_NAME": "TIANMU-1 04", "OBJECT_ID": "2023-039B", "EPOCH": "2025-12-23T04:30:29.788128", "MEAN_MOTION": 15.41558418, "ECCENTRICITY": 0.0004503, "INCLINATION": 97.5042, "RA_OF_ASC_NODE": 159.32, "ARG_OF_PERICENTER": 24.3922, "MEAN_ANOMALY": 335.7536, "EPHEMERIS_TYPE": 0, "CLASSIFICATION_TYPE": "U", "NORAD_CAT_ID": 55974, "ELEMENT_SET_NO": 999, "REV_AT_EPOCH": 15367, "BSTAR": 0.00040888, "MEAN_MOTION_DOT": 0.00017108, "MEAN_MOTION_DDOT": 0}, "tle": {"line1": "1 55974U 23039B   25357.18784477  .00017108  00000+0  40888-3 0  9992", "line2": "2 55974  97.5042 159.3200 0004503  24.3922 335.7536 15.41558418153679"}}, "geometry": {"type": "Point", "coordinates": [-22.303469088307665, -14.305421255064953]}}, {"type": "Feature", "properties": {"norad_id": 55975, "name": "TIANMU-1 05", "group": "weather", "lat": -31.256414304189473, "lon": -24.47641537689254, "alt_km": 451.36905962914716, "timestamp": "2025-12-23T11:34:47.828855+00:00", "meta": {"OBJECT_NAME": "TIANMU-1 05", "OBJECT_ID": "2023-039C", "EPOCH": "2025-12-23T04:25:56.675136", "MEAN_MOTION": 15.41172951, "ECCENTRICITY": 0.0004021, "INCLINATION": 97.5089, "RA_OF_ASC_NODE": 159.8096, "ARG_OF_PERICENTER": 49.738, "MEAN_ANOMALY": 310.4217, "EPHEMERIS_TYPE": 0, "CLASSIFICATION_TYPE": "U", "NORAD_CAT_ID": 55975, "ELEMENT_SET_NO": 999, "REV_AT_EPOCH": 15365, "BSTAR": 0.00040569, "MEAN_MOTION_DOT": 0.00016756, "MEAN_MOTION_DDOT": 0}, "tle": {"line1": "1 55975U 23039C   25357.18468374  .00016756  00000+0  40569-3 0  9992", "line2": "2 55975  97.5089 159.8096 0004021  49.7380 310.4217 15.41172951153651"}}, "geometry": {"type": "Point", "coordinates": [-24.47641537689254, -31.256414304189473]}}, {"type": "Feature", "properties": {"norad_id": 55976, "name": "TIANMU-1 06", "group": "weather", "lat": -4.362597977481934, "lon": -19.98704072050032, "alt_km": 447.281230321345, "timestamp": "2025-12-23T11:34:47.828871+00:00", "meta": {"OBJECT_NAME": "TIANMU-1 06", "OBJECT_ID": "2023-039D", "EPOCH": "2025-12-23T04:33:07.474176", "MEAN_MOTION": 15.41609647, "ECCENTRICITY": 0.0004279, "INCLINATION": 97.5099, "RA_OF_ASC_NODE": 160.2884, "ARG_OF_PERICENTER": 43.8174, "MEAN_ANOMALY": 316.3411, "EPHEMERIS_TYPE": 0, "CLASSIFICATION_TYPE": "U", "NORAD_CAT_ID": 55976, "ELEMENT_SET_NO": 999, "REV_AT_EPOCH": 15367, "BSTAR": 0.00040551, "MEAN_MOTION_DOT": 0.00016995, "MEAN_MOTION_DDOT": 0}, "tle": {"line1": "1 55976U 23039D   25357.18966984  .00016995  00000+0  40551-3 0  9999", "line2": "2 55976  97.5099 160.2884 0004279  43.8174 316.3411 15.41609647153675"}}, "geometry": {"type": "Point", "coordinates": [-19.98704072050032, -4.362597977481934]}}, {"type": "Feature", "properties": {"norad_id": 56232, "name": "FENGYUN 3G", "group": "weather", "lat": 45.66797381200553, "lon": -67.29901092056608, "alt_km": 397.39213121047396, "timestamp": "2025-12-23T11:34:47.828886+00:00", "meta": {"OBJECT_NAME": "FENGYUN 3G", "OBJECT_ID": "2023-055A", "EPOCH": "2025-12-23T00:18:13.416192", "MEAN_MOTION": 15.54230372, "ECCENTRICITY": 0.000928, "INCLINATION": 49.9923, "RA_OF_ASC_NODE": 174.4174, "ARG_OF_PERICENTER": 194.6693, "MEAN_ANOMALY": 165.4007, "EPHEMERIS_TYPE": 0, "CLASSIFICATION_TYPE": "U", "NORAD_CAT_ID": 56232, "ELEMENT_SET_NO": 999, "REV_AT_EPOCH": 15262, "BSTAR": 0.00048841, "MEAN_MOTION_DOT": 0.00032207, "MEAN_MOTION_DDOT": 0}, "tle": {"line1": "1 56232U 23055A   25357.01265528  .00032207  00000+0  48841-3 0  9995", "line2": "2 56232  49.9923 174.4174 0009280 194.6693 165.4007 15.54230372152622"}}, "geometry": {"type": "Point", "coordinates": [-67.29901092056608, 45.66797381200553]}}, {"type": "Feature", "properties": {"norad_id": 57166, "name": "METEOR-M2 3", "group": "weather", "lat": -28.479232455627464, "lon": -133.89581572705904, "alt_km": 819.0107490417604, "timestamp": "2025-12-23T11:34:47.828904+00:00", "meta": {"OBJECT_NAME": "METEOR-M2 3", "OBJECT_ID": "2023-091A", "EPOCH": "2025-12-23T05:32:37.001184", "MEAN_MOTION": 14.24027319, "ECCENTRICITY": 0.0003342, "INCLINATION": 98.6363, "RA_OF_ASC_NODE": 50.5864, "ARG_OF_PERICENTER": 336.6042, "MEAN_ANOMALY": 23.4984, "EPHEMERIS_TYPE": 0, "CLASSIFICATION_TYPE": "U", "NORAD_CAT_ID": 57166, "ELEMENT_SET_NO": 999, "REV_AT_EPOCH": 12947, "BSTAR": 2.6759e-05, "MEAN_MOTION_DOT": 1.8e-07, "MEAN_MOTION_DDOT": 0}, "tle": {"line1": "1 57166U 23091A   25357.23098381  .00000018  00000+0  26759-4 0  9997", "line2": "2 57166  98.6363  50.5864 0003342 336.6042  23.4984 14.24027319129472"}}, "geometry": {"type": "Point", "coordinates": [-133.89581572705904, -28.479232455627464]}}, {"type": "Feature", "properties": {"norad_id": 57399, "name": "TIANMU-1 07", "group": "weather", "lat": 80.78545344176192, "lon": -80.8449363306897, "alt_km": 471.10876197946527, "timestamp": "2025-12-23T11:34:47.828920+00:00", "meta": {"OBJECT_NAME": "TIANMU-1 07", "OBJECT_ID": "2023-101A", "EPOCH": "2025-12-23T04:52:38.996832", "MEAN_MOTION": 15.28214113, "ECCENTRICITY": 0.0005122, "INCLINATION": 97.2857, "RA_OF_ASC_NODE": 46.8223, "ARG_OF_PERICENTER": 54.9461, "MEAN_ANOMALY": 305.2259, "EPHEMERIS_TYPE": 0, "CLASSIFICATION_TYPE": "U", "NORAD_CAT_ID": 57399, "ELEMENT_SET_NO": 999, "REV_AT_EPOCH": 13475, "BSTAR": 0.00029942, "MEAN_MOTION_DOT": 8.164e-05, "MEAN_MOTION_DDOT": 0}, "tle": {"line1": "1 57399U 23101A   25357.20322913  .00008164  00000+0  29942-3 0  9991", "line2": "2 57399  97.2857  46.8223 0005122  54.9461 305.2259 15.28214113134751"}}, "geometry": {"type": "Point", "coordinates": [-80.8449363306897, 80.78545344176192]}}, {"type": "Feature", "properties": {"norad_id": 57400, "name": "TIANMU-1 08", "group": "weather", "lat": -80.18069869363808, "lon": 94.54550311081913, "alt_km": 492.09548883474054, "timestamp": "2025-12-23T11:34:47.828935+00:00", "meta": {"OBJECT_NAME": "TIANMU-1 08", "OBJECT_ID": "2023-101B", "EPOCH": "2025-12-23T04:05:13.517376", "MEAN_MOTION": 15.28195019, "ECCENTRICITY": 0.0007079, "INCLINATION": 97.2846, "RA_OF_ASC_NODE": 46.5862, "ARG_OF_PERICENTER": 54.4488, "MEAN_ANOMALY": 305.7411, "EPHEMERIS_TYPE": 0, "CLASSIFICATION_TYPE": "U", "NORAD_CAT_ID": 57400, "ELEMENT_SET_NO": 999, "REV_AT_EPOCH": 13474, "BSTAR": 0.00029895, "MEAN_MOTION_DOT": 8.149e-05, "MEAN_MOTION_DDOT": 0}, "tle": {"line1": "1 57400U 23101B   25357.17029534  .00008149  00000+0  29895-3 0  9993", "line2": "2 57400  97.2846  46.5862 0007079  54.4488 305.7411 15.28195019134742"}}, "geometry": {"type": "Point", "coordinates": [94.54550311081913, -80.18069869363808]}}]}